[{"OBJECT_NAME":"KUIPER-00020","OBJECT_ID":"2025-088M","EPOCH":"2026-03-09T07:33:05.565600","MEAN_MOTION":14.79999577,"ECCENTRICITY":0.00065612,"INCLINATION":51.9003,"RA_OF_ASC_NODE":104.7471,"ARG_OF_PERICENTER":80.9967,"MEAN_ANOMALY":279.1738,"EPHEMERIS_TYPE":0,"CLASSIFICATION_TYPE":"U","NORAD_CAT_ID":63735,"ELEMENT_SET_NO":999,"REV_AT_EPOCH":4760,"BSTAR":0.00067043352,"MEAN_MOTION_DOT":4.902e-5,"MEAN_MOTION_DDOT":0},{"OBJECT_NAME":"OKEAN-O","OBJECT_ID":"1999-039A","EPOCH":"2026-03-09T17:16:10.736544","MEAN_MOTION":14.80335142,"ECCENTRICITY":0.00012718,"INCLINATION":97.9442,"RA_OF_ASC_NODE":128.6108,"ARG_OF_PERICENTER":70.3084,"MEAN_ANOMALY":289.8265,"EPHEMERIS_TYPE":0,"CLASSIFICATION_TYPE":"U","NORAD_CAT_ID":25860,"ELEMENT_SET_NO":999,"REV_AT_EPOCH":43439,"BSTAR":0.0001136203,"MEAN_MOTION_DOT":8.14e-6,"MEAN_MOTION_DDOT":0}]
